KUIPER-00016            
1 63732U 25088J   25355.98322511 -.00001722  00000+0 -19613-3 0  9991
2 63732  51.9016  95.2139 0013391 165.6952 194.4392 14.79930816 35823
KUIPER-00018            
1 63733U 25088K   25355.52294978  .00003197  00000+0  44814-3 0  9994
2 63733  51.9019  86.2045 0013310 188.6896 171.3838 14.79919070 35914
KUIPER-00019            
1 63734U 25088L   25356.19925114  .00000758  00000+0  12868-3 0  9996
2 63734  51.8985  81.7585 0009128 199.2937 160.7681 14.79925208 36033
KUIPER-00020            
1 63735U 25088M   25356.26304940  .00001446  00000+0  21872-3 0  9993
2 63735  51.9029  85.4596 0008711 180.6972 179.3980 14.79936734 36198
KUIPER-00021            
1 63736U 25088N   25356.26143299  .00001449  00000+0  21908-3 0  9995
2 63736  51.9022  86.4669 0007125 176.9452 183.1555 14.79960295 36014
KUIPER-00023            
1 63737U 25088P   25356.26035605  .00002447  00000+0  34963-3 0  9991
2 63737  51.9028  87.9370 0011644 197.5860 162.4701 14.79963837 36297
KUIPER-00024            
1 63738U 25088Q   25356.25002315  .00040203  00000+0  53038-2 0  9998
2 63738  51.9028  75.5283 0001146 105.2574 128.4758 14.79672611  5723
KUIPER-00025            
1 63739U 25088R   25356.25002315  .00017619  00000+0  23325-2 0  9990
2 63739  51.9021  84.0455 0000582  41.4835 242.2765 14.79961858  4970
