<?xml version="1.0" encoding="UTF-8"?>
<ndm xmlns:xsi="http://www.w3.org/2001/XMLSchema-instance" xsi:noNamespaceSchemaLocation="https://sanaregistry.org/r/ndmxml_unqualified/ndmxml-2.0.0-master-2.0.xsd">
<omm id="CCSDS_OMM_VERS" version="2.0">
<header><CREATION_DATE/><ORIGINATOR/></header><body><segment><metadata><OBJECT_NAME>KUIPER-00016</OBJECT_NAME><OBJECT_ID>2025-088J</OBJECT_ID><CENTER_NAME>EARTH</CENTER_NAME><REF_FRAME>TEME</REF_FRAME><TIME_SYSTEM>UTC</TIME_SYSTEM><MEAN_ELEMENT_THEORY>SGP4</MEAN_ELEMENT_THEORY></metadata><data><meanElements><EPOCH>2025-12-21T23:35:50.649504</EPOCH><MEAN_MOTION>14.79930816</MEAN_MOTION><ECCENTRICITY>.00133919</ECCENTRICITY><INCLINATION>51.9016</INCLINATION><RA_OF_ASC_NODE>95.2139</RA_OF_ASC_NODE><ARG_OF_PERICENTER>165.6952</ARG_OF_PERICENTER><MEAN_ANOMALY>194.4392</MEAN_ANOMALY></meanElements><tleParameters><EPHEMERIS_TYPE>0</EPHEMERIS_TYPE><CLASSIFICATION_TYPE>U</CLASSIFICATION_TYPE><NORAD_CAT_ID>63732</NORAD_CAT_ID><ELEMENT_SET_NO>999</ELEMENT_SET_NO><REV_AT_EPOCH>3582</REV_AT_EPOCH><BSTAR>-.19612866E-3</BSTAR><MEAN_MOTION_DOT>-.1722E-4</MEAN_MOTION_DOT><MEAN_MOTION_DDOT>0</MEAN_MOTION_DDOT></tleParameters></data></segment></body></omm>
<omm id="CCSDS_OMM_VERS" version="2.0">
<header><CREATION_DATE/><ORIGINATOR/></header><body><segment><metadata><OBJECT_NAME>KUIPER-00018</OBJECT_NAME><OBJECT_ID>2025-088K</OBJECT_ID><CENTER_NAME>EARTH</CENTER_NAME><REF_FRAME>TEME</REF_FRAME><TIME_SYSTEM>UTC</TIME_SYSTEM><MEAN_ELEMENT_THEORY>SGP4</MEAN_ELEMENT_THEORY></metadata><data><meanElements><EPOCH>2025-12-21T12:33:02.860992</EPOCH><MEAN_MOTION>14.79919070</MEAN_MOTION><ECCENTRICITY>.00133102</ECCENTRICITY><INCLINATION>51.9019</INCLINATION><RA_OF_ASC_NODE>86.2045</RA_OF_ASC_NODE><ARG_OF_PERICENTER>188.6896</ARG_OF_PERICENTER><MEAN_ANOMALY>171.3838</MEAN_ANOMALY></meanElements><tleParameters><EPHEMERIS_TYPE>0</EPHEMERIS_TYPE><CLASSIFICATION_TYPE>U</CLASSIFICATION_TYPE><NORAD_CAT_ID>63733</NORAD_CAT_ID><ELEMENT_SET_NO>999</ELEMENT_SET_NO><REV_AT_EPOCH>3591</REV_AT_EPOCH><BSTAR>.44814393E-3</BSTAR><MEAN_MOTION_DOT>.3197E-4</MEAN_MOTION_DOT><MEAN_MOTION_DDOT>0</MEAN_MOTION_DDOT></tleParameters></data></segment></body></omm>
<omm id="CCSDS_OMM_VERS" version="2.0">
<header><CREATION_DATE/><ORIGINATOR/></header><body><segment><metadata><OBJECT_NAME>KUIPER-00019</OBJECT_NAME><OBJECT_ID>2025-088L</OBJECT_ID><CENTER_NAME>EARTH</CENTER_NAME><REF_FRAME>TEME</REF_FRAME><TIME_SYSTEM>UTC</TIME_SYSTEM><MEAN_ELEMENT_THEORY>SGP4</MEAN_ELEMENT_THEORY></metadata><data><meanElements><EPOCH>2025-12-22T04:46:55.298496</EPOCH><MEAN_MOTION>14.79925208</MEAN_MOTION><ECCENTRICITY>.00091289</ECCENTRICITY><INCLINATION>51.8985</INCLINATION><RA_OF_ASC_NODE>81.7585</RA_OF_ASC_NODE><ARG_OF_PERICENTER>199.2937</ARG_OF_PERICENTER><MEAN_ANOMALY>160.7681</MEAN_ANOMALY></meanElements><tleParameters><EPHEMERIS_TYPE>0</EPHEMERIS_TYPE><CLASSIFICATION_TYPE>U</CLASSIFICATION_TYPE><NORAD_CAT_ID>63734</NORAD_CAT_ID><ELEMENT_SET_NO>999</ELEMENT_SET_NO><REV_AT_EPOCH>3603</REV_AT_EPOCH><BSTAR>.12868147E-3</BSTAR><MEAN_MOTION_DOT>.758E-5</MEAN_MOTION_DOT><MEAN_MOTION_DDOT>0</MEAN_MOTION_DDOT></tleParameters></data></segment></body></omm>
<omm id="CCSDS_OMM_VERS" version="2.0">
<header><CREATION_DATE/><ORIGINATOR/></header><body><segment><metadata><OBJECT_NAME>KUIPER-00020</OBJECT_NAME><OBJECT_ID>2025-088M</OBJECT_ID><CENTER_NAME>EARTH</CENTER_NAME><REF_FRAME>TEME</REF_FRAME><TIME_SYSTEM>UTC</TIME_SYSTEM><MEAN_ELEMENT_THEORY>SGP4</MEAN_ELEMENT_THEORY></metadata><data><meanElements><EPOCH>2025-12-22T06:18:47.468160</EPOCH><MEAN_MOTION>14.79936734</MEAN_MOTION><ECCENTRICITY>.00087112</ECCENTRICITY><INCLINATION>51.9029</INCLINATION><RA_OF_ASC_NODE>85.4596</RA_OF_ASC_NODE><ARG_OF_PERICENTER>180.6972</ARG_OF_PERICENTER><MEAN_ANOMALY>179.3980</MEAN_ANOMALY></meanElements><tleParameters><EPHEMERIS_TYPE>0</EPHEMERIS_TYPE><CLASSIFICATION_TYPE>U</CLASSIFICATION_TYPE><NORAD_CAT_ID>63735</NORAD_CAT_ID><ELEMENT_SET_NO>999</ELEMENT_SET_NO><REV_AT_EPOCH>3619</REV_AT_EPOCH><BSTAR>.21871801E-3</BSTAR><MEAN_MOTION_DOT>.1446E-4</MEAN_MOTION_DOT><MEAN_MOTION_DDOT>0</MEAN_MOTION_DDOT></tleParameters></data></segment></body></omm>
<omm id="CCSDS_OMM_VERS" version="2.0">
<header><CREATION_DATE/><ORIGINATOR/></header><body><segment><metadata><OBJECT_NAME>KUIPER-00021</OBJECT_NAME><OBJECT_ID>2025-088N</OBJECT_ID><CENTER_NAME>EARTH</CENTER_NAME><REF_FRAME>TEME</REF_FRAME><TIME_SYSTEM>UTC</TIME_SYSTEM><MEAN_ELEMENT_THEORY>SGP4</MEAN_ELEMENT_THEORY></metadata><data><meanElements><EPOCH>2025-12-22T06:16:27.810336</EPOCH><MEAN_MOTION>14.79960295</MEAN_MOTION><ECCENTRICITY>.00071259</ECCENTRICITY><INCLINATION>51.9022</INCLINATION><RA_OF_ASC_NODE>86.4669</RA_OF_ASC_NODE><ARG_OF_PERICENTER>176.9452</ARG_OF_PERICENTER><MEAN_ANOMALY>183.1555</MEAN_ANOMALY></meanElements><tleParameters><EPHEMERIS_TYPE>0</EPHEMERIS_TYPE><CLASSIFICATION_TYPE>U</CLASSIFICATION_TYPE><NORAD_CAT_ID>63736</NORAD_CAT_ID><ELEMENT_SET_NO>999</ELEMENT_SET_NO><REV_AT_EPOCH>3601</REV_AT_EPOCH><BSTAR>.21907676E-3</BSTAR><MEAN_MOTION_DOT>.1449E-4</MEAN_MOTION_DOT><MEAN_MOTION_DDOT>0</MEAN_MOTION_DDOT></tleParameters></data></segment></body></omm>
<omm id="CCSDS_OMM_VERS" version="2.0">
<header><CREATION_DATE/><ORIGINATOR/></header><body><segment><metadata><OBJECT_NAME>KUIPER-00023</OBJECT_NAME><OBJECT_ID>2025-088P</OBJECT_ID><CENTER_NAME>EARTH</CENTER_NAME><REF_FRAME>TEME</REF_FRAME><TIME_SYSTEM>UTC</TIME_SYSTEM><MEAN_ELEMENT_THEORY>SGP4</MEAN_ELEMENT_THEORY></metadata><data><meanElements><EPOCH>2025-12-22T06:14:54.762720</EPOCH><MEAN_MOTION>14.79963837</MEAN_MOTION><ECCENTRICITY>.00116446</ECCENTRICITY><INCLINATION>51.9028</INCLINATION><RA_OF_ASC_NODE>87.9370</RA_OF_ASC_NODE><ARG_OF_PERICENTER>197.5860</ARG_OF_PERICENTER><MEAN_ANOMALY>162.4701</MEAN_ANOMALY></meanElements><tleParameters><EPHEMERIS_TYPE>0</EPHEMERIS_TYPE><CLASSIFICATION_TYPE>U</CLASSIFICATION_TYPE><NORAD_CAT_ID>63737</NORAD_CAT_ID><ELEMENT_SET_NO>999</ELEMENT_SET_NO><REV_AT_EPOCH>3629</REV_AT_EPOCH><BSTAR>.34963349E-3</BSTAR><MEAN_MOTION_DOT>.2447E-4</MEAN_MOTION_DOT><MEAN_MOTION_DDOT>0</MEAN_MOTION_DDOT></tleParameters></data></segment></body></omm>
<omm id="CCSDS_OMM_VERS" version="2.0">
<header><CREATION_DATE/><ORIGINATOR/></header><body><segment><metadata><OBJECT_NAME>KUIPER-00024</OBJECT_NAME><OBJECT_ID>2025-088Q</OBJECT_ID><CENTER_NAME>EARTH</CENTER_NAME><REF_FRAME>TEME</REF_FRAME><TIME_SYSTEM>UTC</TIME_SYSTEM><MEAN_ELEMENT_THEORY>SGP4</MEAN_ELEMENT_THEORY></metadata><data><meanElements><EPOCH>2025-12-22T06:00:02.000160</EPOCH><MEAN_MOTION>14.79672611</MEAN_MOTION><ECCENTRICITY>.00011466</ECCENTRICITY><INCLINATION>51.9028</INCLINATION><RA_OF_ASC_NODE>75.5283</RA_OF_ASC_NODE><ARG_OF_PERICENTER>105.2574</ARG_OF_PERICENTER><MEAN_ANOMALY>128.4758</MEAN_ANOMALY></meanElements><tleParameters><EPHEMERIS_TYPE>0</EPHEMERIS_TYPE><CLASSIFICATION_TYPE>U</CLASSIFICATION_TYPE><NORAD_CAT_ID>63738</NORAD_CAT_ID><ELEMENT_SET_NO>999</ELEMENT_SET_NO><REV_AT_EPOCH>572</REV_AT_EPOCH><BSTAR>.53037725E-2</BSTAR><MEAN_MOTION_DOT>.40203E-3</MEAN_MOTION_DOT><MEAN_MOTION_DDOT>0</MEAN_MOTION_DDOT></tleParameters></data></segment></body></omm>
<omm id="CCSDS_OMM_VERS" version="2.0">
<header><CREATION_DATE/><ORIGINATOR/></header><body><segment><metadata><OBJECT_NAME>KUIPER-00025</OBJECT_NAME><OBJECT_ID>2025-088R</OBJECT_ID><CENTER_NAME>EARTH</CENTER_NAME><REF_FRAME>TEME</REF_FRAME><TIME_SYSTEM>UTC</TIME_SYSTEM><MEAN_ELEMENT_THEORY>SGP4</MEAN_ELEMENT_THEORY></metadata><data><meanElements><EPOCH>2025-12-22T06:00:02.000160</EPOCH><MEAN_MOTION>14.79961858</MEAN_MOTION><ECCENTRICITY>.00005825</ECCENTRICITY><INCLINATION>51.9021</INCLINATION><RA_OF_ASC_NODE>84.0455</RA_OF_ASC_NODE><ARG_OF_PERICENTER>41.4835</ARG_OF_PERICENTER><MEAN_ANOMALY>242.2765</MEAN_ANOMALY></meanElements><tleParameters><EPHEMERIS_TYPE>0</EPHEMERIS_TYPE><CLASSIFICATION_TYPE>U</CLASSIFICATION_TYPE><NORAD_CAT_ID>63739</NORAD_CAT_ID><ELEMENT_SET_NO>999</ELEMENT_SET_NO><REV_AT_EPOCH>497</REV_AT_EPOCH><BSTAR>.2332542E-2</BSTAR><MEAN_MOTION_DOT>.17619E-3</MEAN_MOTION_DOT><MEAN_MOTION_DDOT>0</MEAN_MOTION_DDOT></tleParameters></data></segment></body></omm>

</ndm>
